start=new Date('2023-03-21T00:00:00.000Z').valueOf();
sats=[{"RCS_SIZE":"LARGE","NORAD_CAT_ID":"47641","SITE":"AFETR","MEAN_MOTION_DOT":"0.00033757","OBJECT_TYPE":"PAYLOAD","LAUNCH_DATE":"2021-02-16","ARG_OF_PERICENTER":"67.3974","TLE_LINE1":"1 47641U 21012X   23079.63908736  .00033757  00000-0  22737-2 0  9999","MEAN_MOTION":"15.06409550","EPHEMERIS_TYPE":"0","CENTER_NAME":"EARTH","BSTAR":"0.00227370000000","MEAN_MOTION_DDOT":"0.0000000000000","CLASSIFICATION_TYPE":"U","ELEMENT_SET_NO":"999","GP_ID":"228546014","REV_AT_EPOCH":"11775","TIME_SYSTEM":"UTC","ECCENTRICITY":"0.00014280","APOAPSIS":"548.173","RA_OF_ASC_NODE":"167.5954","REF_FRAME":"TEME","INCLINATION":"53.0540","PERIOD":"95.592","TLE_LINE2":"2 47641  53.0540 167.5954 0001428  67.3974 292.7166 15.06409550117758","PERIAPSIS":"546.195","FILE":"3866115","OBJECT_NAME":"STARLINK-2019","COUNTRY_CODE":"US","DECAY_DATE":null,"EPOCH":"2023-03-20T15:20:17.147904","MEAN_ANOMALY":"292.7166","MEAN_ELEMENT_THEORY":"SGP4","OBJECT_ID":"2021-012X","SEMIMAJOR_AXIS":"6925.319"},{"RCS_SIZE":"LARGE","NORAD_CAT_ID":"47642","SITE":"AFETR","MEAN_MOTION_DOT":"0.00024382","OBJECT_TYPE":"PAYLOAD","ARG_OF_PERICENTER":"73.0361","LAUNCH_DATE":"2021-02-16","TLE_LINE1":"1 47642U 21012Y   23079.76715340  .00024382  00000-0  16489-2 0  9992","MEAN_MOTION":"15.06427096","EPHEMERIS_TYPE":"0","CENTER_NAME":"EARTH","ELEMENT_SET_NO":"999","MEAN_MOTION_DDOT":"0.0000000000000","CLASSIFICATION_TYPE":"U","BSTAR":"0.00164890000000","REV_AT_EPOCH":"11652","GP_ID":"228545764","TIME_SYSTEM":"UTC","APOAPSIS":"547.831","RA_OF_ASC_NODE":"257.0244","ECCENTRICITY":"0.00010120","REF_FRAME":"TEME","INCLINATION":"53.0533","PERIOD":"95.590","TLE_LINE2":"2 47642  53.0533 257.0244 0001012  73.0361 287.0739 15.06427096116523","PERIAPSIS":"546.430","FILE":"3866115","OBJECT_NAME":"STARLINK-2020","COUNTRY_CODE":"US","DECAY_DATE":null,"MEAN_ANOMALY":"287.0739","EPOCH":"2023-03-20T18:24:42.053760","MEAN_ELEMENT_THEORY":"SGP4","OBJECT_ID":"2021-012Y","SEMIMAJOR_AXIS":"6925.266"},{"CENTER_NAME":"EARTH","TIME_SYSTEM":"UTC","REV_AT_EPOCH":"11673","GP_ID":"228547016","CLASSIFICATION_TYPE":"U","MEAN_MOTION_DDOT":"0.0000000000000","BSTAR":"0.00167020000000","ELEMENT_SET_NO":"999","SITE":"AFETR","MEAN_MOTION_DOT":"0.00024713","NORAD_CAT_ID":"47643","RCS_SIZE":"LARGE","EPHEMERIS_TYPE":"0","TLE_LINE1":"1 47643U 21012Z   23079.71508529  .00024713  00000-0  16702-2 0  9993","MEAN_MOTION":"15.06444098","OBJECT_TYPE":"PAYLOAD","ARG_OF_PERICENTER":"89.5480","LAUNCH_DATE":"2021-02-16","DECAY_DATE":null,"COUNTRY_CODE":"US","SEMIMAJOR_AXIS":"6925.213","OBJECT_ID":"2021-012Z","MEAN_ELEMENT_THEORY":"SGP4","EPOCH":"2023-03-20T17:09:43.369056","MEAN_ANOMALY":"270.5612","PERIOD":"95.589","TLE_LINE2":"2 47643  53.0529 242.2547 0000901  89.5480 270.5612 15.06444098116732","INCLINATION":"53.0529","ECCENTRICITY":"0.00009010","APOAPSIS":"547.702","RA_OF_ASC_NODE":"242.2547","REF_FRAME":"TEME","OBJECT_NAME":"STARLINK-2022","FILE":"3866115","PERIAPSIS":"546.454"},{"RCS_SIZE":"LARGE","NORAD_CAT_ID":"47644","MEAN_MOTION_DOT":"0.00016851","SITE":"AFETR","ARG_OF_PERICENTER":"87.8868","LAUNCH_DATE":"2021-02-16","OBJECT_TYPE":"PAYLOAD","MEAN_MOTION":"15.06430138","TLE_LINE1":"1 47644U 21012AA  23079.79434108  .00016851  00000-0  11465-2 0  9998","EPHEMERIS_TYPE":"0","CENTER_NAME":"EARTH","CLASSIFICATION_TYPE":"U","MEAN_MOTION_DDOT":"0.0000000000000","ELEMENT_SET_NO":"999","BSTAR":"0.00114650000000","REV_AT_EPOCH":"11647","GP_ID":"228546761","TIME_SYSTEM":"UTC","REF_FRAME":"TEME","APOAPSIS":"547.641","ECCENTRICITY":"0.00007510","RA_OF_ASC_NODE":"261.9040","INCLINATION":"53.0524","PERIOD":"95.590","TLE_LINE2":"2 47644  53.0524 261.9040 0000751  87.8868 272.2207 15.06430138116478","PERIAPSIS":"546.601","FILE":"3866115","OBJECT_NAME":"STARLINK-2026","COUNTRY_CODE":"US","DECAY_DATE":null,"EPOCH":"2023-03-20T19:03:51.069312","MEAN_ANOMALY":"272.2207","MEAN_ELEMENT_THEORY":"SGP4","OBJECT_ID":"2021-012AA","SEMIMAJOR_AXIS":"6925.256"},{"CLASSIFICATION_TYPE":"U","MEAN_MOTION_DDOT":"0.0000000000000","ELEMENT_SET_NO":"999","BSTAR":"0.00178660000000","TIME_SYSTEM":"UTC","REV_AT_EPOCH":"11684","GP_ID":"228545514","CENTER_NAME":"EARTH","ARG_OF_PERICENTER":"74.3530","LAUNCH_DATE":"2021-02-16","OBJECT_TYPE":"PAYLOAD","EPHEMERIS_TYPE":"0","MEAN_MOTION":"15.06426458","TLE_LINE1":"1 47645U 21012AB  23079.68287855  .00026449  00000-0  17866-2 0  9997","RCS_SIZE":"LARGE","NORAD_CAT_ID":"47645","MEAN_MOTION_DOT":"0.00026449","SITE":"AFETR","MEAN_ELEMENT_THEORY":"SGP4","MEAN_ANOMALY":"285.7575","EPOCH":"2023-03-20T16:23:20.706720","SEMIMAJOR_AXIS":"6925.267","OBJECT_ID":"2021-012AB","COUNTRY_CODE":"US","DECAY_DATE":null,"FILE":"3866115","PERIAPSIS":"546.404","OBJECT_NAME":"STARLINK-2027","INCLINATION":"53.0514","REF_FRAME":"TEME","APOAPSIS":"547.861","ECCENTRICITY":"0.00010520","RA_OF_ASC_NODE":"232.6461","TLE_LINE2":"2 47645  53.0514 232.6461 0001052  74.3530 285.7575 15.06426458116840","PERIOD":"95.590"},{"DECAY_DATE":null,"COUNTRY_CODE":"US","SEMIMAJOR_AXIS":"6925.033","OBJECT_ID":"2021-012AC","MEAN_ELEMENT_THEORY":"SGP4","EPOCH":"2023-03-20T14:28:29.950752","MEAN_ANOMALY":"271.4782","TLE_LINE2":"2 47646  53.0545 198.0013 0001313  88.6357 271.4782 15.06503092117324","PERIOD":"95.586","INCLINATION":"53.0545","APOAPSIS":"547.807","ECCENTRICITY":"0.00013130","RA_OF_ASC_NODE":"198.0013","REF_FRAME":"TEME","OBJECT_NAME":"STARLINK-2028","FILE":"3866115","PERIAPSIS":"545.988","CENTER_NAME":"EARTH","TIME_SYSTEM":"UTC","REV_AT_EPOCH":"11732","GP_ID":"228546265","CLASSIFICATION_TYPE":"U","MEAN_MOTION_DDOT":"0.0000000000000","BSTAR":"0.00206190000000","ELEMENT_SET_NO":"999","SITE":"AFETR","MEAN_MOTION_DOT":"0.00030650","NORAD_CAT_ID":"47646","RCS_SIZE":"LARGE","EPHEMERIS_TYPE":"0","TLE_LINE1":"1 47646U 21012AC  23079.60312443  .00030650  00000-0  20619-2 0  9991","MEAN_MOTION":"15.06503092","OBJECT_TYPE":"PAYLOAD","LAUNCH_DATE":"2021-02-16","ARG_OF_PERICENTER":"88.6357"},{"MEAN_ELEMENT_THEORY":"SGP4","EPOCH":"2023-03-20T19:19:45.975072","MEAN_ANOMALY":"297.0406","SEMIMAJOR_AXIS":"6925.220","OBJECT_ID":"2021-012AD","COUNTRY_CODE":"US","DECAY_DATE":null,"FILE":"3866115","PERIAPSIS":"546.454","OBJECT_NAME":"STARLINK-2030","INCLINATION":"53.0527","RA_OF_ASC_NODE":"261.8473","APOAPSIS":"547.716","ECCENTRICITY":"0.00009110","REF_FRAME":"TEME","TLE_LINE2":"2 47647  53.0527 261.8473 0000911  63.0676 297.0406 15.06441894116471","PERIOD":"95.589","CLASSIFICATION_TYPE":"U","MEAN_MOTION_DDOT":"0.0000000000000","ELEMENT_SET_NO":"999","BSTAR":"0.00125690000000","TIME_SYSTEM":"UTC","GP_ID":"228546516","REV_AT_EPOCH":"11647","CENTER_NAME":"EARTH","OBJECT_TYPE":"PAYLOAD","ARG_OF_PERICENTER":"63.0676","LAUNCH_DATE":"2021-02-16","EPHEMERIS_TYPE":"0","TLE_LINE1":"1 47647U 21012AD  23079.80539323  .00018511  00000-0  12569-2 0  9999","MEAN_MOTION":"15.06441894","RCS_SIZE":"LARGE","NORAD_CAT_ID":"47647","SITE":"AFETR","MEAN_MOTION_DOT":"0.00018511"},{"COUNTRY_CODE":"US","DECAY_DATE":null,"MEAN_ELEMENT_THEORY":"SGP4","MEAN_ANOMALY":"305.8644","EPOCH":"2023-03-20T17:30:57.509856","SEMIMAJOR_AXIS":"6925.222","OBJECT_ID":"2021-012AE","INCLINATION":"53.0537","REF_FRAME":"TEME","ECCENTRICITY":"0.00009300","APOAPSIS":"547.731","RA_OF_ASC_NODE":"242.1859","PERIOD":"95.590","TLE_LINE2":"2 47648  53.0537 242.1859 0000930  54.2431 305.8644 15.06441203116741","FILE":"3866115","PERIAPSIS":"546.443","OBJECT_NAME":"STARLINK-2031","CENTER_NAME":"EARTH","CLASSIFICATION_TYPE":"U","MEAN_MOTION_DDOT":"0.0000000000000","ELEMENT_SET_NO":"999","BSTAR":"0.00167030000000","TIME_SYSTEM":"UTC","REV_AT_EPOCH":"11674","GP_ID":"228547262","NORAD_CAT_ID":"47648","RCS_SIZE":"LARGE","MEAN_MOTION_DOT":"0.00024713","SITE":"AFETR","LAUNCH_DATE":"2021-02-16","ARG_OF_PERICENTER":"54.2431","OBJECT_TYPE":"PAYLOAD","EPHEMERIS_TYPE":"0","MEAN_MOTION":"15.06441203","TLE_LINE1":"1 47648U 21012AE  23079.72983229  .00024713  00000-0  16703-2 0  9994"},{"CENTER_NAME":"EARTH","TIME_SYSTEM":"UTC","GP_ID":"228546015","REV_AT_EPOCH":"11674","MEAN_MOTION_DDOT":"0.0000000000000","CLASSIFICATION_TYPE":"U","ELEMENT_SET_NO":"999","BSTAR":"0.00152470000000","SITE":"AFETR","MEAN_MOTION_DOT":"0.00022529","NORAD_CAT_ID":"47649","RCS_SIZE":"LARGE","EPHEMERIS_TYPE":"0","TLE_LINE1":"1 47649U 21012AF  23079.73351591  .00022529  00000-0  15247-2 0  9992","MEAN_MOTION":"15.06444329","OBJECT_TYPE":"PAYLOAD","ARG_OF_PERICENTER":"67.1346","LAUNCH_DATE":"2021-02-16","DECAY_DATE":null,"COUNTRY_CODE":"US","SEMIMAJOR_AXIS":"6925.213","OBJECT_ID":"2021-012AF","MEAN_ELEMENT_THEORY":"SGP4","MEAN_ANOMALY":"292.9746","EPOCH":"2023-03-20T17:36:15.774624","TLE_LINE2":"2 47649  53.0514 242.1766 0000975  67.1346 292.9746 15.06444329116742","PERIOD":"95.589","INCLINATION":"53.0514","RA_OF_ASC_NODE":"242.1766","APOAPSIS":"547.753","ECCENTRICITY":"0.00009750","REF_FRAME":"TEME","OBJECT_NAME":"STARLINK-2032","FILE":"3866115","PERIAPSIS":"546.402"},{"MEAN_ELEMENT_THEORY":"SGP4","MEAN_ANOMALY":"283.4799","EPOCH":"2023-03-20T17:15:02.344032","SEMIMAJOR_AXIS":"6925.223","OBJECT_ID":"2021-012AG","COUNTRY_CODE":"US","DECAY_DATE":null,"FILE":"3866115","PERIAPSIS":"546.351","OBJECT_NAME":"STARLINK-2033","INCLINATION":"53.0516","RA_OF_ASC_NODE":"242.2438","APOAPSIS":"547.825","ECCENTRICITY":"0.00010640","REF_FRAME":"TEME","TLE_LINE2":"2 47650  53.0516 242.2438 0001064  76.6309 283.4799 15.06441072116720","PERIOD":"95.590","MEAN_MOTION_DDOT":"0.0000000000000","CLASSIFICATION_TYPE":"U","ELEMENT_SET_NO":"999","BSTAR":"0.00166020000000","TIME_SYSTEM":"UTC","GP_ID":"228545765","REV_AT_EPOCH":"11672","CENTER_NAME":"EARTH","OBJECT_TYPE":"PAYLOAD","ARG_OF_PERICENTER":"76.6309","LAUNCH_DATE":"2021-02-16","EPHEMERIS_TYPE":"0","TLE_LINE1":"1 47650U 21012AG  23079.71877713  .00024561  00000-0  16602-2 0  9995","MEAN_MOTION":"15.06441072","RCS_SIZE":"LARGE","NORAD_CAT_ID":"47650","SITE":"AFETR","MEAN_MOTION_DOT":"0.00024561"}];
